ORBCOMM-X [-]           
1 21576U 91050C   23324.79063326  .00000318  00000+0  10954-3 0  9999
2 21576  98.4183  30.1461 0004763 115.0618 245.1066 14.42259391699292
ORBCOMM FM01 [-]        
1 23545U 95017A   23324.79557165  .00003573  00000+0  51274-3 0  9999
2 23545  69.9694  50.8116 0001815 126.8897 233.2418 14.77338522527347
ORBCOMM FM02 [-]        
1 23546U 95017B   23324.77773028  .00004685  00000+0  67603-3 0  9994
2 23546  69.9705  69.9750 0003844 103.1414 257.0163 14.76880886526998
ORBCOMM FM08 [-]        
1 25112U 97084A   23324.44344075  .00001236  00000+0  41999-3 0  9990
2 25112  45.0156 237.0327 0006946 237.2270 122.7911 14.41573977358496
ORBCOMM FM10 [-]        
1 25113U 97084B   23325.13460362  .00001143  00000+0  39225-3 0  9992
2 25113  45.0165 235.4776 0004158 211.7728 148.2871 14.41511968358585
ORBCOMM FM11 [+]        
1 25114U 97084C   23324.72380602  .00001230  00000+0  41995-3 0  9999
2 25114  45.0151 237.3737 0004883 208.9559 151.1020 14.41401549358485
ORBCOMM FM09 [-]        
1 25116U 97084E   23324.75719988  .00001200  00000+0  41112-3 0  9995
2 25116  45.0163 237.5037 0004874 191.1498 168.9245 14.41353897358498
